{
  "type": "FeatureCollection",
  "features": [
    {
      "type": "Feature",
      "properties": {
        "norad_id": 66174,
        "name": "HTV-X1",
        "group": "stations",
        "lat": -28.67299722514266,
        "lon": -40.75625860107017,
        "alt_km": 419.9153272333797,
        "timestamp": "2025-12-18T13:51:48.402154+00:00",
        "meta_object_name": "HTV-X1",
        "meta_object_id": "2025-241A",
        "meta_epoch": "2025-12-18T05:11:21.338880",
        "meta_mean_motion": 15.49648163,
        "meta_eccentricity": 0.00031704,
        "meta_inclination": 51.6313,
        "meta_ra_of_asc_node": 115.3593,
        "meta_arg_of_pericenter": 265.6107,
        "meta_mean_anomaly": 94.4519,
        "meta_ephemeris_type": 0,
        "meta_classification_type": "U",
        "meta_norad_cat_id": 66174,
        "meta_element_set_no": 999,
        "meta_rev_at_epoch": 51,
        "meta_bstar": 0.00015154287,
        "meta_mean_motion_dot": 8.098e-05,
        "meta_mean_motion_ddot": 0,
        "tle_line1": "1 66174U 25241A   25352.21621920  .00008098  00000+0  15154-3 0  9991",
        "tle_line2": "2 66174  51.6313 115.3593 0003170 265.6107  94.4519 15.49648163   515"
      },
      "geometry": {
        "type": "Point",
        "coordinates": [
          -40.75625860107017,
          -28.67299722514266
        ]
      }
    },
    {
      "type": "Feature",
      "properties": {
        "norad_id": 66515,
        "name": "SZ-21 MODULE",
        "group": "stations",
        "lat": 4.342354903069163,
        "lon": 155.49461124854602,
        "alt_km": 380.5246433548418,
        "timestamp": "2025-12-18T13:51:48.402163+00:00",
        "meta_object_name": "SZ-21 MODULE",
        "meta_object_id": "2025-246C",
        "meta_epoch": "2025-12-18T03:55:20.605152",
        "meta_mean_motion": 15.62762889,
        "meta_eccentricity": 0.00058648,
        "meta_inclination": 41.4774,
        "meta_ra_of_asc_node": 342.9545,
        "meta_arg_of_pericenter": 288.8905,
        "meta_mean_anomaly": 71.1299,
        "meta_ephemeris_type": 0,
        "meta_classification_type": "U",
        "meta_norad_cat_id": 66515,
        "meta_element_set_no": 999,
        "meta_rev_at_epoch": 529,
        "meta_bstar": 0.00028266875,
        "meta_mean_motion_dot": 0.00025921,
        "meta_mean_motion_ddot": 0,
        "tle_line1": "1 66515U 25246C   25352.16343293  .00025921  00000+0  28267-3 0  9996",
        "tle_line2": "2 66515  41.4774 342.9545 0005864 288.8905  71.1299 15.62762889  5296"
      },
      "geometry": {
        "type": "Point",
        "coordinates": [
          155.49461124854602,
          4.342354903069163
        ]
      }
    },
    {
      "type": "Feature",
      "properties": {
        "norad_id": 66645,
        "name": "SHENZHOU-22",
        "group": "stations",
        "lat": -9.848256573545873,
        "lon": 172.59624834626217,
        "alt_km": 392.15848881006514,
        "timestamp": "2025-12-18T13:51:48.402174+00:00",
        "meta_object_name": "SHENZHOU-22",
        "meta_object_id": "2025-272A",
        "meta_epoch": "2025-12-18T06:53:03.575616",
        "meta_mean_motion": 15.59417882,
        "meta_eccentricity": 0.00077258,
        "meta_inclination": 41.4683,
        "meta_ra_of_asc_node": 343.0261,
        "meta_arg_of_pericenter": 79.3286,
        "meta_mean_anomaly": 280.8422,
        "meta_ephemeris_type": 0,
        "meta_classification_type": "U",
        "meta_norad_cat_id": 66645,
        "meta_element_set_no": 999,
        "meta_rev_at_epoch": 26357,
        "meta_bstar": 0.00029030456,
        "meta_mean_motion_dot": 0.00023377,
        "meta_mean_motion_ddot": 0,
        "tle_line1": "1 66645U 25272A   25352.28684694  .00023377  00000+0  29030-3 0  9997",
        "tle_line2": "2 66645  41.4683 343.0261 0007725  79.3286 280.8422 15.59417882263579"
      },
      "geometry": {
        "type": "Point",
        "coordinates": [
          172.59624834626217,
          -9.848256573545873
        ]
      }
    },
    {
      "type": "Feature",
      "properties": {
        "norad_id": 66664,
        "name": "SOYUZ-MS 28",
        "group": "stations",
        "lat": -28.67299859361491,
        "lon": -40.756257040048155,
        "alt_km": 419.91532726988044,
        "timestamp": "2025-12-18T13:51:48.402184+00:00",
        "meta_object_name": "SOYUZ-MS 28",
        "meta_object_id": "2025-275A",
        "meta_epoch": "2025-12-18T05:11:21.338880",
        "meta_mean_motion": 15.49648163,
        "meta_eccentricity": 0.00031704,
        "meta_inclination": 51.6313,
        "meta_ra_of_asc_node": 115.3593,
        "meta_arg_of_pericenter": 265.6107,
        "meta_mean_anomaly": 94.4519,
        "meta_ephemeris_type": 0,
        "meta_classification_type": "U",
        "meta_norad_cat_id": 66664,
        "meta_element_set_no": 999,
        "meta_rev_at_epoch": 128,
        "meta_bstar": 0.00015154287,
        "meta_mean_motion_dot": 8.098e-05,
        "meta_mean_motion_ddot": 0,
        "tle_line1": "1 66664U 25275A   25352.21621920  .00008098  00000+0  15154-3 0  9992",
        "tle_line2": "2 66664  51.6313 115.3593 0003170 265.6107  94.4519 15.49648163  1284"
      },
      "geometry": {
        "type": "Point",
        "coordinates": [
          -40.756257040048155,
          -28.67299859361491
        ]
      }
    },
    {
      "type": "Feature",
      "properties": {
        "norad_id": 66906,
        "name": "1998-067XS",
        "group": "stations",
        "lat": -51.60136868036605,
        "lon": 24.958547016615835,
        "alt_km": 417.1780438191254,
        "timestamp": "2025-12-18T13:51:48.402194+00:00",
        "meta_object_name": "1998-067XS",
        "meta_object_id": "1998-067XS",
        "meta_epoch": "2025-12-17T16:35:43.301760",
        "meta_mean_motion": 15.50834133,
        "meta_eccentricity": 0.0003138,
        "meta_inclination": 51.6309,
        "meta_ra_of_asc_node": 117.8563,
        "meta_arg_of_pericenter": 226.0893,
        "meta_mean_anomaly": 133.9837,
        "meta_ephemeris_type": 0,
        "meta_classification_type": "U",
        "meta_norad_cat_id": 66906,
        "meta_element_set_no": 999,
        "meta_rev_at_epoch": 238,
        "meta_bstar": 0.00042869394,
        "meta_mean_motion_dot": 0.00024822,
        "meta_mean_motion_ddot": 0,
        "tle_line1": "1 66906U 98067XS  25351.69147340  .00024822  00000+0  42869-3 0  9996",
        "tle_line2": "2 66906  51.6309 117.8563 0003138 226.0893 133.9837 15.50834133  2389"
      },
      "geometry": {
        "type": "Point",
        "coordinates": [
          24.958547016615835,
          -51.60136868036605
        ]
      }
    },
    {
      "type": "Feature",
      "properties": {
        "norad_id": 66907,
        "name": "1998-067XT",
        "group": "stations",
        "lat": -37.44555444381463,
        "lon": 76.0221457886784,
        "alt_km": 412.75477066482654,
        "timestamp": "2025-12-18T13:51:48.402207+00:00",
        "meta_object_name": "1998-067XT",
        "meta_object_id": "1998-067XT",
        "meta_epoch": "2025-12-17T19:32:19.947264",
        "meta_mean_motion": 15.52074588,
        "meta_eccentricity": 0.00039845,
        "meta_inclination": 51.6304,
        "meta_ra_of_asc_node": 117.1744,
        "meta_arg_of_pericenter": 257.0045,
        "meta_mean_anomaly": 103.05,
        "meta_ephemeris_type": 0,
        "meta_classification_type": "U",
        "meta_norad_cat_id": 66907,
        "meta_element_set_no": 999,
        "meta_rev_at_epoch": 240,
        "meta_bstar": 0.00089323104,
        "meta_mean_motion_dot": 0.00054815,
        "meta_mean_motion_ddot": 0,
        "tle_line1": "1 66907U 98067XT  25351.81411976  .00054815  00000+0  89323-3 0  9991",
        "tle_line2": "2 66907  51.6304 117.1744 0003984 257.0045 103.0500 15.52074588  2401"
      },
      "geometry": {
        "type": "Point",
        "coordinates": [
          76.0221457886784,
          -37.44555444381463
        ]
      }
    },
    {
      "type": "Feature",
      "properties": {
        "norad_id": 66908,
        "name": "1998-067XU",
        "group": "stations",
        "lat": -35.04228125151603,
        "lon": 79.61376022399064,
        "alt_km": 412.4905018266627,
        "timestamp": "2025-12-18T13:51:48.402217+00:00",
        "meta_object_name": "1998-067XU",
        "meta_object_id": "1998-067XU",
        "meta_epoch": "2025-12-17T14:53:17.519424",
        "meta_mean_motion": 15.52149323,
        "meta_eccentricity": 0.00041086,
        "meta_inclination": 51.6303,
        "meta_ra_of_asc_node": 118.1303,
        "meta_arg_of_pericenter": 254.9738,
        "meta_mean_anomaly": 105.0797,
        "meta_ephemeris_type": 0,
        "meta_classification_type": "U",
        "meta_norad_cat_id": 66908,
        "meta_element_set_no": 999,
        "meta_rev_at_epoch": 237,
        "meta_bstar": 0.00089135269,
        "meta_mean_motion_dot": 0.00054848,
        "meta_mean_motion_ddot": 0,
        "tle_line1": "1 66908U 98067XU  25351.62034166  .00054848  00000+0  89135-3 0  9990",
        "tle_line2": "2 66908  51.6303 118.1303 0004108 254.9738 105.0797 15.52149323  2373"
      },
      "geometry": {
        "type": "Point",
        "coordinates": [
          79.61376022399064,
          -35.04228125151603
        ]
      }
    }
  ]
}